{
  "norad_id": 45453,
  "name": "ONEWEB-0050",
  "history": [
    {
      "epoch": "2026-03-28T21:33:25.662816Z",
      "apogee_km": 598.5196903273809,
      "perigee_km": 597.0346577180144,
      "latitude_deg": 5.850757652989136e-07,
      "longitude_deg": 94.45831587393359,
      "height_km": 601.3478105136785,
      "semi_major_axis_km": 6975.914174022698,
      "eccentricity": 0.00010644,
      "inclination_deg": 88.9229,
      "raan_deg": 244.1273,
      "arg_perigee_deg": 235.8484,
      "mean_anomaly_deg": 124.2644,
      "mean_motion_rev_day": 14.90050779
    },
    {
      "epoch": "2026-03-29T04:00:15.140160Z",
      "apogee_km": 598.5261321459275,
      "perigee_km": 597.0095704312571,
      "latitude_deg": -2.603814114021353e-06,
      "longitude_deg": -2.5494117863527377,
      "height_km": 601.3744339695417,
      "semi_major_axis_km": 6975.904851288592,
      "eccentricity": 0.0001087,
      "inclination_deg": 88.923,
      "raan_deg": 244.0905,
      "arg_perigee_deg": 233.3363,
      "mean_anomaly_deg": 126.7766,
      "mean_motion_rev_day": 14.90053766
    },
    {
      "epoch": "2026-03-30T04:10:50.709792Z",
      "apogee_km": 598.5958380338525,
      "perigee_km": 596.899302906314,
      "latitude_deg": 5.145100131438445e-05,
      "longitude_deg": -6.328012459877409,
      "height_km": 601.5514032395406,
      "semi_major_axis_km": 6975.884570470083,
      "eccentricity": 0.0001216,
      "inclination_deg": 88.9226,
      "raan_deg": 243.953,
      "arg_perigee_deg": 219.9683,
      "mean_anomaly_deg": 140.1457,
      "mean_motion_rev_day": 14.90060264
    },
    {
      "epoch": "2026-03-30T04:10:50.710656Z",
      "apogee_km": 598.5961170692353,
      "perigee_km": 596.8990238709312,
      "latitude_deg": 5.442410908782399e-05,
      "longitude_deg": -6.328016014125664,
      "height_km": 601.5516171389681,
      "semi_major_axis_km": 6975.884570470083,
      "eccentricity": 0.00012164,
      "inclination_deg": 88.9226,
      "raan_deg": 243.953,
      "arg_perigee_deg": 219.9683,
      "mean_anomaly_deg": 140.1457,
      "mean_motion_rev_day": 14.90060264
    },
    {
      "epoch": "2026-03-30T10:37:40.047168Z",
      "apogee_km": 598.6136810795433,
      "perigee_km": 596.8645499023451,
      "latitude_deg": 1.0396193095938045e-05,
      "longitude_deg": -103.3349557663339,
      "height_km": 601.5788410611179,
      "semi_major_axis_km": 6975.876115490944,
      "eccentricity": 0.00012537,
      "inclination_deg": 88.9226,
      "raan_deg": 243.9164,
      "arg_perigee_deg": 218.3365,
      "mean_anomaly_deg": 141.7775,
      "mean_motion_rev_day": 14.90062973
    }
  ]
}